#aV2023 11 11  0  0  0.00000000     288 DD+AD WGS84 FIT  NGA
## 2287 518400.00000000   300.00000000 60259 0.0000000000000
+   32     1  2  3  4  5  6  7  8  9 10 11 12 13 14 15 16 17
+         18 19 20 21 22 23 24 25 26 27 28 29 30 31 32  0  0
+          0  0  0  0  0  0  0  0  0  0  0  0  0  0  0  0  0
+          0  0  0  0  0  0  0  0  0  0  0  0  0  0  0  0  0
+          0  0  0  0  0  0  0  0  0  0  0  0  0  0  0  0  0
++         2  2  2  2  2  2  2  2  2  2  2  2  2  2  2  2  2
++         2  2  2  2  2  2  2  2  2  2  2  2  2  2  2  0  0
++         0  0  0  0  0  0  0  0  0  0  0  0  0  0  0  0  0
++         0  0  0  0  0  0  0  0  0  0  0  0  0  0  0  0  0
++         0  0  0  0  0  0  0  0  0  0  0  0  0  0  0  0  0
%c cc cc ccc ccc cccc cccc cccc cccc ccccc ccccc ccccc ccccc
%c cc cc ccc ccc cccc cccc cccc cccc ccccc ccccc ccccc ccccc
%f  0.0000000  0.000000000  0.00000000000  0.000000000000000
%f  0.0000000  0.000000000  0.00000000000  0.000000000000000
%i    0    0    0    0      0      0      0      0         0
%i    0    0    0    0      0      0      0      0         0
/*      NGA, ST. LOUIS,MO.                                  
/*   EPHEMERIS COMPUTED FROM 2 DAYS OF DATA                 
/*   EPOCHA v8 SMOOTHER                                     
/*   G2139 IERS2010 SATIGS SATAPC                           
*  2023 11 11  2 30  0.00000000
P  1  13683.004915 -16024.430869  15609.355435    163.196419                    
V  1  -2470.988255  20448.430389  22992.088632     -0.000259                    
P  2  14828.849645 -10164.208977  19992.528678   -530.565799                    
V  2  -1266.230772  24325.210110  13847.971339      0.049873                    
P  3  22707.922357 -12349.139351  -5995.494335    -22.282682                    
V  3   7718.176737   -477.705072  31070.443776      0.250015                    
P  4  13414.502567  -8000.221214 -21488.802107    209.522103                    
V  4  19912.675907  18650.976933   5358.771524      0.104873                    
P  5 -25074.533656   4492.710104  -7867.817132   -149.917699                    
V  5   8106.095950  -5821.489032 -29750.061210     -0.014465                    
P  6  -7231.264159 -19455.796136 -16447.573794    509.106448                    
V  6   5316.661360 -20351.791165  21737.204122     -0.098131                    
P  7   5046.989237 -25791.596561   -443.843640     16.660474                    
V  7   3314.600650   1764.430932 -31832.739067     -0.099737                    
P  8  19955.315539    -31.622095  17648.742266   -151.509134                    
V  8  16590.140952  15164.080173 -18241.816991     -0.018573                    
P  9   3035.414555 -16375.358892 -20767.997636     -6.549378                    
V  9  20935.485757  15768.539921  -9469.029415      0.111954                    
P 10   6302.625119  13501.143936  22186.660610    -60.901740                    
V 10 -26026.032016   9307.917092   1423.062732     -0.015083                    
P 11 -13338.142839  -8126.744157 -21467.489863   -454.812450                    
V 11   6644.958536 -26466.595830   5833.083611     -0.163752                    
P 12 -24129.591408  10121.524824  -4599.684363   -445.671193                    
V 12  -6025.679388  -1083.894509  31167.318096     -0.041061                    
P 13 -20918.010795 -10709.181856  12381.418915    593.945999                    
V 13  -9129.093952 -13227.036911 -26223.263627      0.041297                    
P 14  -2123.173975 -15526.748227  21454.318466    239.783705                    
V 14  26031.958633  -8072.852800  -3441.393823      0.108101                    
P 15 -19480.296361   3059.167563  17403.718436     95.925167                    
V 15 -18483.728790 -13976.690728 -17520.158282      0.037540                    
P 16  23799.586745   2578.865145 -12300.953828   -424.192078                    
V 16 -13992.387179   5577.901613 -26142.358501      0.065801                    
P 17  -9861.861202 -21382.531816  12594.914815    723.363566                    
V 17  12453.137574   9163.985642  26346.704824     -0.003559                    
P 18  -4650.325802  26034.164796    839.835813   -475.565076                    
V 18  -2699.423927    535.013682 -32154.434899     -0.109892                    
P 19 -16425.000363 -20771.300993   3577.062163    397.241169                    
V 19   4860.091226   1904.602417  31321.143558      0.052120                    
P 20 -19398.953587  -3476.539777 -17670.395972    402.255959                    
V 20  18735.090154 -12839.329095 -18174.927760     -0.019306                    
P 21  15376.121151  -5705.434379  21214.901435    144.586330                    
V 21  -1261.967600  25970.419258   9012.339100     -0.009791                    
P 22  -9178.239476 -13131.123575  21591.498771     86.170680                    
V 22  25402.481074  -7256.791490   6802.538957     -0.070232                    
P 23  -7721.893015  16809.799679  18999.293108     96.907229                    
V 23 -22924.418388   7614.474791 -16242.726923      0.062810                    
P 24 -14616.614610  11661.651535  18306.966241   -368.326325                    
V 24    -15.324291 -24397.989978  15623.005519     -0.090646                    
P 25 -14826.640447  16639.508810 -14563.032458    476.847766                    
V 25 -17755.926257   4116.362254  23568.238165      0.016839                    
P 26  17392.280030   7571.116614 -18861.098065    217.478743                    
V 26 -20992.635042  10999.926771 -14684.953985     -0.025758                    
P 27  22589.947637  11944.004100   7738.729159    -68.222890                    
V 27   6273.263378   8177.046870 -29523.259207     -0.053417                    
P 28   7286.479424  20916.119095 -14685.281223    -43.508155                    
V 28  -4740.738092  18104.613105  23473.766831     -0.083009                    
P 29  -4584.927925  15572.624787 -21044.496376   -610.226137                    
V 29 -19446.562140 -18170.993546  -9327.644972      0.000159                    
P 30  -2125.675870 -24796.465729   9014.466254   -469.534439                    
V 30   5499.639066 -10572.932768 -28426.523140      0.039922                    
P 31  11818.912018  12969.325765 -20017.088658   -225.618028                    
V 31  -6359.634178  24341.739734  12548.833827     -0.003650                    
P 32  14493.189943  20462.954873   9247.491444   -584.246891                    
V 32 -10302.290129  -5477.773373  28634.313049     -0.045778                    
EOF
